GLOBALSTAR M067         
1 32263U 07048A   25347.44855196 -.00000083  00000+0  10531-3 0  9992
2 32263  51.9714 231.3942 0001840  34.9626 135.9017 12.40682827831730
GLOBALSTAR M070         
1 32264U 07048B   25347.66124539 -.00000077  00000+0  14807-3 0  9990
2 32264  51.9766 301.7477 0000376  66.1945 104.1291 12.62327337836336
GLOBALSTAR M066         
1 32265U 07048C   25347.68347028 -.00000079  00000+0  12819-3 0  9996
2 32265  51.9579 230.4410 0005537  23.3039 354.2908 12.30383076837394
GLOBALSTAR M068         
1 32266U 07048D   25347.64984461 -.00000061  00000+0  23635-3 0  9990
2 32266  51.9875 115.1870 0001762 142.3875 231.2844 12.62835222840239
GLOBALSTAR M079         
1 37188U 10054A   25347.63209190 -.00000085  00000+0  10278-3 0  9992
2 37188  52.0057 313.5276 0000516  18.8387 152.5284 12.62269191699114
GLOBALSTAR M074         
1 37189U 10054B   25347.65842531 -.00000090  00000+0  77349-4 0  9996
2 37189  52.0037 312.7421 0000610  53.2932 117.4814 12.62264112699724
GLOBALSTAR M076         
1 37190U 10054C   25347.68520766 -.00000084  00000+0  10780-3 0  9992
2 37190  52.0046 312.8491 0000683  38.8012 132.5951 12.62268090699440
GLOBALSTAR M077         
1 37191U 10054D   25347.60368965 -.00000078  00000+0  10827-4 0  9992
2 37191  51.9995 290.7037 0001049  22.1991 148.8988 11.68176801699455
